KUIPER-00061            
1 64521U 25134X   25201.40133131  .00021494  00000+0  62531-3 0  9998
2 64521  51.8738 201.0817 0004996 207.4316 152.6406 15.35364552  4920
KUIPER-00062            
1 64522U 25134Y   25200.74481825  .00020551  00000+0  59255-3 0  9993
2 64522  51.8747 204.1842 0004304 194.9968 165.0891 15.35677269  5287
KUIPER-00063            
1 64523U 25134Z   25200.73593974  .00019130  00000+0  54271-3 0  9996
2 64523  51.8756 204.1271 0002149 165.5282 194.5766 15.36238796  5289
KUIPER-00064            
1 64524U 25134AA  25201.37683261  .00020399  00000+0  56653-3 0  9992
2 64524  51.8765 200.9229 0001312 113.3958 246.7167 15.36860682  5223
KUIPER-00065            
1 64525U 25134AB  25201.28447064  .00020996  00000+0  62488-3 0  9998
2 64525  51.8697 201.7874 0008205 206.8874 153.1687 15.34643753  5141
KUIPER-00066            
1 64526U 25134AC  25200.33336806  .00010164  00000+0  29075-3 0  9996
2 64526  51.8765 206.0140 0001472 119.3946 200.4207 15.36559983  4752
